STARLINK-4059           
1 53250U 22086J   26035.26206707  .00000529  00000+0  51346-4 0  9997
2 53250  53.2200 344.1828 0001508  95.2841 264.8323 15.08844592196024
STARLINK-4129           
1 53251U 22086K   26035.25103294 -.00000137  00000+0  94798-5 0  9999
2 53251  53.2193 344.2328 0001490  87.7309 272.3854 15.08845167196018
STARLINK-4132           
1 53252U 22086L   26035.25470589 -.00000589  00000+0 -18944-4 0  9994
2 53252  53.2193 344.1684 0001440  87.4169 272.6988 15.08834939196037
STARLINK-4133           
1 53253U 22086M   26035.24734897  .00000507  00000+0  49913-4 0  9997
2 53253  53.2183 344.2494 0001487  96.9507 263.1654 15.08846131196019
STARLINK-4134           
1 53254U 22086N   26035.25566678 -.00000231  00000+0  36047-5 0  9999
2 53254  53.2198 344.2209 0001429  96.4315 263.6840 15.08841907196038
STARLINK-4142           
1 53255U 22086P   26035.23999842 -.00000465  00000+0 -11109-4 0  9992
2 53255  53.2192 344.2846 0001487  86.6933 273.4230 15.08833047196017
STARLINK-4147           
1 53256U 22086Q   26035.24367427  .00000471  00000+0  47690-4 0  9991
2 53256  53.2199 344.2651 0001527  86.0070 274.1097 15.08838468196011
STARLINK-4144           
1 53257U 22086R   26035.22895315  .00000113  00000+0  25195-4 0  9991
2 53257  53.2191 344.3329 0001456  90.2229 269.8930 15.08836799196013
STARLINK-4127           
1 53258U 22086S   26035.23631700  .00000373  00000+0  41503-4 0  9998
2 53258  53.2184 344.3011 0001428  85.5487 274.5668 15.08837019196013
STARLINK-4140           
1 53259U 22086T   26035.25834451  .00000523  00000+0  50977-4 0  9991
2 53259  53.2198 343.8429 0001445  95.2736 264.8421 15.08838043196028
STARLINK-4062           
1 53261U 22086V   26035.28414809  .00000040  00000+0  20613-4 0  9996
2 53261  53.2192 344.0836 0001288  90.6139 269.5001 15.08846880196025
STARLINK-4085           
1 53262U 22086W   26035.22527243  .00000377  00000+0  41757-4 0  9993
2 53262  53.2197 344.3491 0001331  84.6760 275.4384 15.08838648196015
STARLINK-4130           
1 53263U 22086X   26035.14799026  .00002274  00000+0  16094-3 0  9998
2 53263  53.2195 344.6945 0001513  79.3481 280.7681 15.08837464196007
STARLINK-3950           
1 53264U 22086Y   26035.15535035  .00000660  00000+0  59564-4 0  9995
2 53264  53.2206 344.6640 0001572  95.6210 264.4961 15.08839935196004
STARLINK-4097           
1 53265U 22086Z   26035.27312313 -.00001605  00000+0 -82834-4 0  9999
2 53265  53.2207 344.1331 0001386  90.3232 269.7918 15.08825926196024
STARLINK-4058           
1 53266U 22086AA  26035.27678988  .00000053  00000+0  21420-4 0  9991
2 53266  53.2186 344.1148 0001442  88.8711 271.2446 15.08839437196020
STARLINK-4060           
1 53267U 22086AB  26035.26575399 -.00000421  00000+0 -83823-5 0  9990
2 53267  53.2201 344.1656 0001559  96.2981 263.8189 15.08837638196026
