[{"OBJECT_NAME":"STARLINK-4059","OBJECT_ID":"2022-086J","EPOCH":"2026-02-04T06:17:22.594848","MEAN_MOTION":15.08844592,"ECCENTRICITY":0.0001508,"INCLINATION":53.22,"RA_OF_ASC_NODE":344.1828,"ARG_OF_PERICENTER":95.2841,"MEAN_ANOMALY":264.8323,"EPHEMERIS_TYPE":0,"CLASSIFICATION_TYPE":"U","NORAD_CAT_ID":53250,"ELEMENT_SET_NO":999,"REV_AT_EPOCH":19602,"BSTAR":5.1346e-5,"MEAN_MOTION_DOT":5.29e-6,"MEAN_MOTION_DDOT":0},{"OBJECT_NAME":"STARLINK-4129","OBJECT_ID":"2022-086K","EPOCH":"2026-02-04T06:01:29.246016","MEAN_MOTION":15.08845167,"ECCENTRICITY":0.000149,"INCLINATION":53.2193,"RA_OF_ASC_NODE":344.2328,"ARG_OF_PERICENTER":87.7309,"MEAN_ANOMALY":272.3854,"EPHEMERIS_TYPE":0,"CLASSIFICATION_TYPE":"U","NORAD_CAT_ID":53251,"ELEMENT_SET_NO":999,"REV_AT_EPOCH":19601,"BSTAR":9.4798e-6,"MEAN_MOTION_DOT":-1.37e-6,"MEAN_MOTION_DDOT":0},{"OBJECT_NAME":"STARLINK-4132","OBJECT_ID":"2022-086L","EPOCH":"2026-02-04T06:06:46.588896","MEAN_MOTION":15.08834939,"ECCENTRICITY":0.000144,"INCLINATION":53.2193,"RA_OF_ASC_NODE":344.1684,"ARG_OF_PERICENTER":87.4169,"MEAN_ANOMALY":272.6988,"EPHEMERIS_TYPE":0,"CLASSIFICATION_TYPE":"U","NORAD_CAT_ID":53252,"ELEMENT_SET_NO":999,"REV_AT_EPOCH":19603,"BSTAR":-1.8944e-5,"MEAN_MOTION_DOT":-5.89e-6,"MEAN_MOTION_DDOT":0},{"OBJECT_NAME":"STARLINK-4133","OBJECT_ID":"2022-086M","EPOCH":"2026-02-04T05:56:10.951008","MEAN_MOTION":15.08846131,"ECCENTRICITY":0.0001487,"INCLINATION":53.2183,"RA_OF_ASC_NODE":344.2494,"ARG_OF_PERICENTER":96.9507,"MEAN_ANOMALY":263.1654,"EPHEMERIS_TYPE":0,"CLASSIFICATION_TYPE":"U","NORAD_CAT_ID":53253,"ELEMENT_SET_NO":999,"REV_AT_EPOCH":19601,"BSTAR":4.9913e-5,"MEAN_MOTION_DOT":5.07e-6,"MEAN_MOTION_DDOT":0},{"OBJECT_NAME":"STARLINK-4134","OBJECT_ID":"2022-086N","EPOCH":"2026-02-04T06:08:09.609792","MEAN_MOTION":15.08841907,"ECCENTRICITY":0.0001429,"INCLINATION":53.2198,"RA_OF_ASC_NODE":344.2209,"ARG_OF_PERICENTER":96.4315,"MEAN_ANOMALY":263.684,"EPHEMERIS_TYPE":0,"CLASSIFICATION_TYPE":"U","NORAD_CAT_ID":53254,"ELEMENT_SET_NO":999,"REV_AT_EPOCH":19603,"BSTAR":3.6047e-6,"MEAN_MOTION_DOT":-2.31e-6,"MEAN_MOTION_DDOT":0},{"OBJECT_NAME":"STARLINK-4142","OBJECT_ID":"2022-086P","EPOCH":"2026-02-04T05:45:35.863488","MEAN_MOTION":15.08833047,"ECCENTRICITY":0.0001487,"INCLINATION":53.2192,"RA_OF_ASC_NODE":344.2846,"ARG_OF_PERICENTER":86.6933,"MEAN_ANOMALY":273.423,"EPHEMERIS_TYPE":0,"CLASSIFICATION_TYPE":"U","NORAD_CAT_ID":53255,"ELEMENT_SET_NO":999,"REV_AT_EPOCH":19601,"BSTAR":-1.1109e-5,"MEAN_MOTION_DOT":-4.65e-6,"MEAN_MOTION_DDOT":0},{"OBJECT_NAME":"STARLINK-4147","OBJECT_ID":"2022-086Q","EPOCH":"2026-02-04T05:50:53.456928","MEAN_MOTION":15.08838468,"ECCENTRICITY":0.0001527,"INCLINATION":53.2199,"RA_OF_ASC_NODE":344.2651,"ARG_OF_PERICENTER":86.007,"MEAN_ANOMALY":274.1097,"EPHEMERIS_TYPE":0,"CLASSIFICATION_TYPE":"U","NORAD_CAT_ID":53256,"ELEMENT_SET_NO":999,"REV_AT_EPOCH":19601,"BSTAR":4.769e-5,"MEAN_MOTION_DOT":4.71e-6,"MEAN_MOTION_DDOT":0},{"OBJECT_NAME":"STARLINK-4144","OBJECT_ID":"2022-086R","EPOCH":"2026-02-04T05:29:41.552160","MEAN_MOTION":15.08836799,"ECCENTRICITY":0.0001456,"INCLINATION":53.2191,"RA_OF_ASC_NODE":344.3329,"ARG_OF_PERICENTER":90.2229,"MEAN_ANOMALY":269.893,"EPHEMERIS_TYPE":0,"CLASSIFICATION_TYPE":"U","NORAD_CAT_ID":53257,"ELEMENT_SET_NO":999,"REV_AT_EPOCH":19601,"BSTAR":2.5195e-5,"MEAN_MOTION_DOT":1.13e-6,"MEAN_MOTION_DDOT":0},{"OBJECT_NAME":"STARLINK-4127","OBJECT_ID":"2022-086S","EPOCH":"2026-02-04T05:40:17.788800","MEAN_MOTION":15.08837019,"ECCENTRICITY":0.0001428,"INCLINATION":53.2184,"RA_OF_ASC_NODE":344.3011,"ARG_OF_PERICENTER":85.5487,"MEAN_ANOMALY":274.5668,"EPHEMERIS_TYPE":0,"CLASSIFICATION_TYPE":"U","NORAD_CAT_ID":53258,"ELEMENT_SET_NO":999,"REV_AT_EPOCH":19601,"BSTAR":4.1503e-5,"MEAN_MOTION_DOT":3.73e-6,"MEAN_MOTION_DDOT":0},{"OBJECT_NAME":"STARLINK-4140","OBJECT_ID":"2022-086T","EPOCH":"2026-02-04T06:12:00.965664","MEAN_MOTION":15.08838043,"ECCENTRICITY":0.0001445,"INCLINATION":53.2198,"RA_OF_ASC_NODE":343.8429,"ARG_OF_PERICENTER":95.2736,"MEAN_ANOMALY":264.8421,"EPHEMERIS_TYPE":0,"CLASSIFICATION_TYPE":"U","NORAD_CAT_ID":53259,"ELEMENT_SET_NO":999,"REV_AT_EPOCH":19602,"BSTAR":5.0977e-5,"MEAN_MOTION_DOT":5.23e-6,"MEAN_MOTION_DDOT":0},{"OBJECT_NAME":"STARLINK-4062","OBJECT_ID":"2022-086V","EPOCH":"2026-02-04T06:49:10.394976","MEAN_MOTION":15.0884688,"ECCENTRICITY":0.0001288,"INCLINATION":53.2192,"RA_OF_ASC_NODE":344.0836,"ARG_OF_PERICENTER":90.6139,"MEAN_ANOMALY":269.5001,"EPHEMERIS_TYPE":0,"CLASSIFICATION_TYPE":"U","NORAD_CAT_ID":53261,"ELEMENT_SET_NO":999,"REV_AT_EPOCH":19602,"BSTAR":2.0613e-5,"MEAN_MOTION_DOT":4.0e-7,"MEAN_MOTION_DDOT":0},{"OBJECT_NAME":"STARLINK-4085","OBJECT_ID":"2022-086W","EPOCH":"2026-02-04T05:24:23.537952","MEAN_MOTION":15.08838648,"ECCENTRICITY":0.0001331,"INCLINATION":53.2197,"RA_OF_ASC_NODE":344.3491,"ARG_OF_PERICENTER":84.676,"MEAN_ANOMALY":275.4384,"EPHEMERIS_TYPE":0,"CLASSIFICATION_TYPE":"U","NORAD_CAT_ID":53262,"ELEMENT_SET_NO":999,"REV_AT_EPOCH":19601,"BSTAR":4.1757e-5,"MEAN_MOTION_DOT":3.77e-6,"MEAN_MOTION_DDOT":0},{"OBJECT_NAME":"STARLINK-4130","OBJECT_ID":"2022-086X","EPOCH":"2026-02-04T03:33:06.358464","MEAN_MOTION":15.08837464,"ECCENTRICITY":0.00015132,"INCLINATION":53.2195,"RA_OF_ASC_NODE":344.6945,"ARG_OF_PERICENTER":79.3481,"MEAN_ANOMALY":280.7681,"EPHEMERIS_TYPE":0,"CLASSIFICATION_TYPE":"U","NORAD_CAT_ID":53263,"ELEMENT_SET_NO":999,"REV_AT_EPOCH":19600,"BSTAR":0.00016094006,"MEAN_MOTION_DOT":2.274e-5,"MEAN_MOTION_DDOT":0},{"OBJECT_NAME":"STARLINK-3950","OBJECT_ID":"2022-086Y","EPOCH":"2026-02-04T03:43:42.270240","MEAN_MOTION":15.08839935,"ECCENTRICITY":0.00015725,"INCLINATION":53.2206,"RA_OF_ASC_NODE":344.664,"ARG_OF_PERICENTER":95.621,"MEAN_ANOMALY":264.4961,"EPHEMERIS_TYPE":0,"CLASSIFICATION_TYPE":"U","NORAD_CAT_ID":53264,"ELEMENT_SET_NO":999,"REV_AT_EPOCH":19600,"BSTAR":5.9563652e-5,"MEAN_MOTION_DOT":6.6e-6,"MEAN_MOTION_DDOT":0},{"OBJECT_NAME":"STARLINK-4097","OBJECT_ID":"2022-086Z","EPOCH":"2026-02-04T06:33:17.838432","MEAN_MOTION":15.08825926,"ECCENTRICITY":0.0001386,"INCLINATION":53.2207,"RA_OF_ASC_NODE":344.1331,"ARG_OF_PERICENTER":90.3232,"MEAN_ANOMALY":269.7918,"EPHEMERIS_TYPE":0,"CLASSIFICATION_TYPE":"U","NORAD_CAT_ID":53265,"ELEMENT_SET_NO":999,"REV_AT_EPOCH":19602,"BSTAR":-8.2834e-5,"MEAN_MOTION_DOT":-1.605e-5,"MEAN_MOTION_DDOT":0},{"OBJECT_NAME":"STARLINK-4058","OBJECT_ID":"2022-086AA","EPOCH":"2026-02-04T06:38:34.645632","MEAN_MOTION":15.08839437,"ECCENTRICITY":0.0001442,"INCLINATION":53.2186,"RA_OF_ASC_NODE":344.1148,"ARG_OF_PERICENTER":88.8711,"MEAN_ANOMALY":271.2446,"EPHEMERIS_TYPE":0,"CLASSIFICATION_TYPE":"U","NORAD_CAT_ID":53266,"ELEMENT_SET_NO":999,"REV_AT_EPOCH":19602,"BSTAR":2.142e-5,"MEAN_MOTION_DOT":5.3e-7,"MEAN_MOTION_DDOT":0},{"OBJECT_NAME":"STARLINK-4060","OBJECT_ID":"2022-086AB","EPOCH":"2026-02-04T06:22:41.144736","MEAN_MOTION":15.08837638,"ECCENTRICITY":0.0001559,"INCLINATION":53.2201,"RA_OF_ASC_NODE":344.1656,"ARG_OF_PERICENTER":96.2981,"MEAN_ANOMALY":263.8189,"EPHEMERIS_TYPE":0,"CLASSIFICATION_TYPE":"U","NORAD_CAT_ID":53267,"ELEMENT_SET_NO":999,"REV_AT_EPOCH":19602,"BSTAR":-8.3823e-6,"MEAN_MOTION_DOT":-4.21e-6,"MEAN_MOTION_DDOT":0}]
